ASNARO-2                
1 43152U 18007A   23170.47669069  .00012688  00000+0  55096-3 0  9993
2 43152  97.4184 176.9498 0001798  91.4388 268.7054 15.22447161301012
XIAOXIANG-2             
1 43155U 18008A   23170.54690438  .00017576  00000+0  69067-3 0  9993
2 43155  97.2977 223.0095 0011134 301.6654  58.3498 15.25686274299011
ZHOU ENLAI              
1 43156U 18008B   23170.55598241  .00020194  00000+0  77949-3 0  9992
2 43156  97.3024 223.1362 0008799 302.5494  57.4894 15.26276037298943
KIPP                    
1 43157U 18008C   23170.39962960  .00021690  00000+0  80282-3 0  9994
2 43157  97.3088 223.5360 0008999 298.3973  61.6359 15.27650455298890
QUANTUTONG 1            
1 43158U 18008D   23170.10370070  .00014438  00000+0  61452-3 0  9999
2 43158  97.3030 219.6246 0008851 309.7520  50.2937 15.23062823298718
JILIN-01-07             
1 43159U 18008E   23170.56489057  .00003699  00000+0  20637-3 0  9993
2 43159  97.2914 214.0061 0011337 326.6642  33.3875 15.14100337298478
JILIN-01-08             
1 43160U 18008F   23170.52286875  .00003990  00000+0  22373-3 0  9997
2 43160  97.2918 213.7919 0008227 344.7162  15.3821 15.13894674298467
SBIRS GEO-3 (USA 282)   
1 43162U 18009A   23170.50604907 -.00000286  00000+0  00000+0 0  9993
2 43162   2.8815 324.8173 0001624 121.3338 142.4910  1.00271565 19877
LEMUR-2-MARSHALL        
1 43165U 18010C   23170.28704327  .00173831  00000+0  16758-2 0  9996
2 43165  82.8934  71.1358 0011929  84.4566 275.8055 15.65868039300944
LEMUR-2-TALLHAMN-ATC    
1 43167U 18010E   23170.19561834  .00048387  00000+0  91150-3 0  9999
2 43167  82.9059  81.2734 0018517 104.1696 256.1614 15.48122101300306
WEINA 1A                
1 43169U 18011A   23170.51575197  .00002267  00000+0  22161-3 0  9998
2 43169  34.9983 285.3592 0003682 269.9945  90.0338 14.92082213294176
YAOGAN-30 K             
1 43170U 18011B   23170.55349572  .00002617  00000+0  25334-3 0  9994
2 43170  34.9971 284.5120 0005824 177.0372 183.0368 14.92389917294094
YAOGAN-30 L             
1 43171U 18011C   23170.61602397  .00002639  00000+0  25552-3 0  9995
2 43171  34.9964 283.9727 0003217 225.2424 134.8019 14.92384351294174
YAOGAN-30 M             
1 43172U 18011D   23170.61019819  .00002545  00000+0  24626-3 0  9994
2 43172  34.9979 284.1410 0004125 262.1393  97.8844 14.92424018294042
AL YAH 3                
1 43174U 18012A   23170.36457738 -.00000151  00000+0  00000+0 0  9993
2 43174   0.1486  94.2372 0001814   2.6357 281.5840  1.00269865 19874
SES-14                  
1 43175U 18012B   23170.21572590 -.00000274  00000+0  00000+0 0  9998
2 43175   0.0133 333.1159 0000788 122.7044 201.5199  1.00271494 20093
KANOPUS-V 3             
1 43180U 18014A   23170.54611275  .00003508  00000+0  15953-3 0  9995
2 43180  97.4153  78.7203 0001875  87.2021 272.9429 15.21388804298313
KANOPUS-V 4             
1 43181U 18014B   23170.51995589  .00003199  00000+0  14574-3 0  9990
2 43181  97.4156  78.7470 0001805  87.6332 272.5111 15.21389663298324
LEMUR-2-JIN-LUEN        
1 43182U 18014C   23170.17191096  .00005279  00000+0  38675-3 0  9993
2 43182  97.6177  72.4696 0015626 147.2802 212.9395 15.03870695293903
LEMUR-2-URAMCHANSOL     
1 43183U 18014D   23169.96188007  .00007991  00000+0  56543-3 0  9994
2 43183  97.6153  72.7075 0016203 140.2030 220.0388 15.05012789293894
LEMUR-2-KADI            
1 43184U 18014E   23170.15257054  .00008691  00000+0  63029-3 0  9992
2 43184  97.6044  72.2594 0014276 126.7419 233.5120 15.04081022293891
LEMUR-2-THENICKMOLO     
1 43185U 18014F   23170.52558445  .00007920  00000+0  57196-3 0  9994
2 43185  97.6103  73.0467 0011093 124.6362 235.5911 15.04302713293965
S-NET D                 
1 43186U 18014G   23170.18344950  .00002909  00000+0  23519-3 0  9995
2 43186  97.6298  73.9541 0016323 154.5504 205.6527 15.00472933293851
S-NET B                 
1 43187U 18014H   23170.18457212  .00002988  00000+0  24142-3 0  9992
2 43187  97.6291  73.8832 0016577 152.4611 207.7495 15.00464470293858
S-NET A                 
1 43188U 18014J   23170.51812629  .00003068  00000+0  24776-3 0  9990
2 43188  97.6295  74.2984 0016587 151.6226 208.5905 15.00469205293902
S-NET C                 
1 43189U 18014K   23170.52038314  .00003171  00000+0  25599-3 0  9992
2 43189  97.6285  74.1890 0016961 147.3378 212.8899 15.00456423292450
ZHANGHENG 1 (CSES)      
1 43194U 18015C   23170.57074493  .00010308  00000+0  47145-3 0  9993
2 43194  97.5668 306.7796 0004076 318.5562  41.5363 15.20725712298428
NUSAT-4 (ADA)           
1 43195U 18015D   23170.58262973  .00041508  00000+0  74237-3 0  9995
2 43195  97.5749 327.0624 0010792 173.8606 186.2779 15.49829583299643
GOMX-4B                 
1 43196U 18015E   23170.16291453  .00017054  00000+0  47963-3 0  9990
2 43196  97.5788 321.1049 0014424 194.2580 165.8258 15.36464087299259
GOMX-4A                 
1 43197U 18015F   23170.55358978  .00019420  00000+0  49046-3 0  9993
2 43197  97.5786 323.6172 0013861 187.9799 172.1228 15.39766603299460
SHAONIAN XING           
1 43199U 18015H   23170.41928119  .00216581  00000+0  12260-2 0  9994
2 43199  97.5416 330.3682 0006277 188.5534 171.5626 15.78459643300172
NUSAT-5 (MARYAM)        
1 43204U 18015K   23170.55398022  .00044349  00000+0  75684-3 0  9991
2 43204  97.5758 328.0148 0010200 175.8313 184.3025 15.51151296299293
BEIDOU-3 M4             
1 43207U 18018A   23169.35290794 -.00000053  00000+0  00000+0 0  9991
2 43207  55.7474  99.5348 0006871 344.9650  14.9844  1.86231687 36350
BEIDOU-3 M3             
1 43208U 18018B   23169.41950673 -.00000052  00000+0  00000+0 0  9997
2 43208  55.7469  99.5370 0009099 313.0191  46.8750  1.86231579 36352
PAZ                     
1 43215U 18020A   23170.43036740  .00002739  00000+0  13355-3 0  9996
2 43215  97.4444 177.5160 0001705  87.8190 272.3239 15.19151752294956
GOES 17                 
1 43226U 18022A   23170.55698396 -.00000086  00000+0  00000+0 0  9997
2 43226   0.0519 166.2334 0001933 292.1445 264.9298  1.00271746 19459
HISPASAT 30W-6          
1 43228U 18023A   23170.36257260 -.00000212  00000+0  00000+0 0  9991
2 43228   0.0425  39.9765 0005381  33.6407 294.2338  1.00271897 19478
PODSAT                  
1 43229U 18023B   23170.02385418  .00038404  00000+0  77365-3 0  9997
2 43229  26.8492  77.4183 4322202 185.0995 168.5010  6.93801061108931
O3B FM15                
1 43231U 18024A   23170.09081167 -.00000026  00000+0  00000+0 0  9990
2 43231   0.0537   2.3696 0002895  80.5916 277.0704  5.00114508 96296
O3B FM16                
1 43232U 18024B   23169.74448420 -.00000026  00000+0  00000+0 0  9990
2 43232   0.0579   2.5819 0002925  80.8452 276.6050  5.00116241 96198
O3B FM14                
1 43233U 18024C   23170.18421359 -.00000026  00000+0  00000+0 0  9993
2 43233   0.0592   3.3226 0003079  82.8788 273.8324  5.00115727 96225
O3B FM13                
1 43234U 18024D   23170.23786895 -.00000026  00000+0  00000+0 0  9999
2 43234   0.0555 341.7717 0003240  89.3102 288.9519  5.00115482 96345
LKW-4                   
1 43236U 18025A   23170.52831635  .00007934  00000+0  33766-3 0  9990
2 43236  97.5167 296.3497 0004424  21.5305 338.6117 15.23264179292344
BEIDOU-3 M9             
1 43245U 18029A   23169.64284541 -.00000108  00000+0  00000+0 0  9991
2 43245  55.0603 337.8839 0000822 103.3161 256.6853  1.86232883 35517
BEIDOU-3 M10            
1 43246U 18029B   23170.10995183 -.00000107  00000+0  00000+0 0  9995
2 43246  55.0574 337.8970 0003904  19.6160 340.3913  1.86233056 35503
IRIDIUM 144             
1 43249U 18030A   23170.32999600  .00000235  00000+0  76916-4 0  9997
2 43249  86.3976  27.5704 0002005  88.1214 272.0211 14.34218948273358
IRIDIUM 149             
1 43250U 18030B   23170.33633611  .00000310  00000+0  10368-3 0  9999
2 43250  86.3975  27.5466 0001870  88.1210 272.0200 14.34216293273370
IRIDIUM 157             
1 43251U 18030C   23170.35536207  .00000305  00000+0  10174-3 0  9994
2 43251  86.3977  27.5678 0002401  85.7115 274.4355 14.34218386273356
IRIDIUM 140             
1 43252U 18030D   23170.09531756  .00000340  00000+0  11418-3 0  9991
2 43252  86.3978  27.6913 0001932  83.2346 276.9070 14.34218506273375
IRIDIUM 145             
1 43253U 18030E   23170.36169997  .00000306  00000+0  10210-3 0  9997
2 43253  86.3977  27.5548 0001830  97.7286 262.4117 14.34220455273343
IRIDIUM 146             
1 43254U 18030F   23170.34267533  .00000305  00000+0  10177-3 0  9992
2 43254  86.3976  27.5784 0002077  91.8574 268.2860 14.34219299273358
IRIDIUM 148             
1 43255U 18030G   23170.31096422  .00000310  00000+0  10349-3 0  9994
2 43255  86.3977  27.6186 0002305  97.0703 263.0755 14.34218376273387
IRIDIUM 142             
1 43256U 18030H   23170.34901986  .00000280  00000+0  92822-4 0  9991
2 43256  86.3975  27.5315 0002130  88.6201 271.5239 14.34218391273359
IRIDIUM 150             
1 43257U 18030J   23170.31730903  .00000310  00000+0  10353-3 0  9990
2 43257  86.3976  27.6255 0001850  83.6670 276.4736 14.34217649273371
IRIDIUM 143             
1 43258U 18030K   23170.36804708  .00000311  00000+0  10403-3 0  9998
2 43258  86.3981  27.6532 0002011  92.2238 267.9188 14.34218714273316
GAOFEN 1-02             
1 43259U 18031A   23170.54300114  .00001096  00000+0  16426-3 0  9994
2 43259  97.8630 243.4183 0002374 244.4423 115.6541 14.76548477281313
GAOFEN 1-03             
1 43260U 18031B   23170.52139557  .00001085  00000+0  16268-3 0  9997
2 43260  97.8625 243.3423 0004633 350.9820   9.1306 14.76557175281309
GAOFEN 1-04             
1 43262U 18031D   23170.56455083  .00000263  00000+0  44764-4 0  9998
2 43262  97.8632 243.4537 0001813 298.3317  61.7710 14.76551640281303
SUPERBIRD-B3            
1 43271U 18033A   23170.58244903 -.00000089  00000+0  00000+0 0  9996
2 43271   0.0218  17.9290 0001236 262.1933 359.0926  1.00269076 19089
